[{"OBJECT_NAME":"ARABSAT-1A","OBJECT_ID":"1985-015A","EPOCH":"2026-03-02T16:20:55.661856","MEAN_MOTION":1.00174111,"ECCENTRICITY":0.00300299,"INCLINATION":11.9662,"RA_OF_ASC_NODE":331.9703,"ARG_OF_PERICENTER":240.8335,"MEAN_ANOMALY":303.1999,"EPHEMERIS_TYPE":0,"CLASSIFICATION_TYPE":"U","NORAD_CAT_ID":15560,"ELEMENT_SET_NO":999,"REV_AT_EPOCH":12494,"BSTAR":0,"MEAN_MOTION_DOT":-3.65e-6,"MEAN_MOTION_DDOT":0},{"OBJECT_NAME":"BRASILSAT 1","OBJECT_ID":"1985-015B","EPOCH":"2026-03-02T18:46:25.472928","MEAN_MOTION":0.99544119,"ECCENTRICITY":0.00060674,"INCLINATION":14.1727,"RA_OF_ASC_NODE":345.6802,"ARG_OF_PERICENTER":332.4934,"MEAN_ANOMALY":211.7048,"EPHEMERIS_TYPE":0,"CLASSIFICATION_TYPE":"U","NORAD_CAT_ID":15561,"ELEMENT_SET_NO":999,"REV_AT_EPOCH":4528,"BSTAR":0,"MEAN_MOTION_DOT":-8.9e-7,"MEAN_MOTION_DDOT":0},{"OBJECT_NAME":"COSMOS 1629","OBJECT_ID":"1985-016A","EPOCH":"2026-03-02T11:38:11.895360","MEAN_MOTION":1.00271607,"ECCENTRICITY":0.00067185,"INCLINATION":9.3224,"RA_OF_ASC_NODE":315.1791,"ARG_OF_PERICENTER":272.2778,"MEAN_ANOMALY":291.0067,"EPHEMERIS_TYPE":0,"CLASSIFICATION_TYPE":"U","NORAD_CAT_ID":15574,"ELEMENT_SET_NO":999,"REV_AT_EPOCH":14938,"BSTAR":0,"MEAN_MOTION_DOT":4.6e-7,"MEAN_MOTION_DDOT":0},{"OBJECT_NAME":"SL-12 R/B(2)","OBJECT_ID":"1985-016F","EPOCH":"2026-03-02T15:06:29.131776","MEAN_MOTION":0.99403513,"ECCENTRICITY":0.0025161,"INCLINATION":9.8337,"RA_OF_ASC_NODE":316.9693,"ARG_OF_PERICENTER":257.3391,"MEAN_ANOMALY":276.6918,"EPHEMERIS_TYPE":0,"CLASSIFICATION_TYPE":"U","NORAD_CAT_ID":15581,"ELEMENT_SET_NO":999,"REV_AT_EPOCH":12087,"BSTAR":0,"MEAN_MOTION_DOT":-1.9e-6,"MEAN_MOTION_DDOT":0},{"OBJECT_NAME":"NAHUEL I1 (ANIK C1)","OBJECT_ID":"1985-028B","EPOCH":"2026-03-02T23:59:28.172832","MEAN_MOTION":0.99665836,"ECCENTRICITY":0.0011164,"INCLINATION":14.7855,"RA_OF_ASC_NODE":352.944,"ARG_OF_PERICENTER":150.178,"MEAN_ANOMALY":37.7591,"EPHEMERIS_TYPE":0,"CLASSIFICATION_TYPE":"U","NORAD_CAT_ID":15642,"ELEMENT_SET_NO":999,"REV_AT_EPOCH":4533,"BSTAR":0,"MEAN_MOTION_DOT":-5.0e-8,"MEAN_MOTION_DDOT":0},{"OBJECT_NAME":"GSTAR 1","OBJECT_ID":"1985-035A","EPOCH":"2026-03-02T11:58:40.132704","MEAN_MOTION":1.00272621,"ECCENTRICITY":0.00025197,"INCLINATION":14.362,"RA_OF_ASC_NODE":349.5291,"ARG_OF_PERICENTER":85.084,"MEAN_ANOMALY":160.2544,"EPHEMERIS_TYPE":0,"CLASSIFICATION_TYPE":"U","NORAD_CAT_ID":15677,"ELEMENT_SET_NO":999,"REV_AT_EPOCH":12413,"BSTAR":0,"MEAN_MOTION_DOT":-1.24e-6,"MEAN_MOTION_DDOT":0},{"OBJECT_NAME":"TELECOM 1B","OBJECT_ID":"1985-035B","EPOCH":"2026-03-02T03:29:06.293472","MEAN_MOTION":1.00374044,"ECCENTRICITY":0.00047409,"INCLINATION":10.31,"RA_OF_ASC_NODE":321.5983,"ARG_OF_PERICENTER":343.6619,"MEAN_ANOMALY":190.7086,"EPHEMERIS_TYPE":0,"CLASSIFICATION_TYPE":"U","NORAD_CAT_ID":15678,"ELEMENT_SET_NO":999,"REV_AT_EPOCH":13594,"BSTAR":0,"MEAN_MOTION_DOT":-2.79e-6,"MEAN_MOTION_DDOT":0},{"OBJECT_NAME":"SL-6 R/B(2)","OBJECT_ID":"1985-040D","EPOCH":"2026-03-02T14:37:09.575040","MEAN_MOTION":1.96955464,"ECCENTRICITY":0.7460657,"INCLINATION":62.3325,"RA_OF_ASC_NODE":305.3844,"ARG_OF_PERICENTER":256.5474,"MEAN_ANOMALY":18.1193,"EPHEMERIS_TYPE":0,"CLASSIFICATION_TYPE":"U","NORAD_CAT_ID":15741,"ELEMENT_SET_NO":999,"REV_AT_EPOCH":29290,"BSTAR":-0.00017766,"MEAN_MOTION_DOT":-7.03e-6,"MEAN_MOTION_DDOT":0},{"OBJECT_NAME":"ARABSAT-1B","OBJECT_ID":"1985-048C","EPOCH":"2026-03-02T21:11:49.216128","MEAN_MOTION":1.00432846,"ECCENTRICITY":0.0017262,"INCLINATION":12.4915,"RA_OF_ASC_NODE":334.8558,"ARG_OF_PERICENTER":13.8948,"MEAN_ANOMALY":179.8445,"EPHEMERIS_TYPE":0,"CLASSIFICATION_TYPE":"U","NORAD_CAT_ID":15825,"ELEMENT_SET_NO":999,"REV_AT_EPOCH":13436,"BSTAR":0,"MEAN_MOTION_DOT":6.0e-7,"MEAN_MOTION_DDOT":0},{"OBJECT_NAME":"TELSTAR 303","OBJECT_ID":"1985-048D","EPOCH":"2026-03-01T12:47:38.257152","MEAN_MOTION":0.99881595,"ECCENTRICITY":0.0004423,"INCLINATION":14.253,"RA_OF_ASC_NODE":347.0848,"ARG_OF_PERICENTER":283.3453,"MEAN_ANOMALY":273.8732,"EPHEMERIS_TYPE":0,"CLASSIFICATION_TYPE":"U","NORAD_CAT_ID":15826,"ELEMENT_SET_NO":999,"REV_AT_EPOCH":4542,"BSTAR":0,"MEAN_MOTION_DOT":3.0e-7,"MEAN_MOTION_DDOT":0},{"OBJECT_NAME":"INTELSAT 511","OBJECT_ID":"1985-055A","EPOCH":"2026-03-02T11:32:45.495168","MEAN_MOTION":1.00104456,"ECCENTRICITY":0.00107143,"INCLINATION":13.2881,"RA_OF_ASC_NODE":339.5191,"ARG_OF_PERICENTER":79.1231,"MEAN_ANOMALY":108.3908,"EPHEMERIS_TYPE":0,"CLASSIFICATION_TYPE":"U","NORAD_CAT_ID":15873,"ELEMENT_SET_NO":999,"REV_AT_EPOCH":12344,"BSTAR":0,"MEAN_MOTION_DOT":6.5e-7,"MEAN_MOTION_DDOT":0},{"OBJECT_NAME":"RADUGA 16","OBJECT_ID":"1985-070A","EPOCH":"2026-03-02T11:36:25.465248","MEAN_MOTION":1.00256472,"ECCENTRICITY":0.00029188,"INCLINATION":9.5997,"RA_OF_ASC_NODE":317.4902,"ARG_OF_PERICENTER":319.7367,"MEAN_ANOMALY":246.0516,"EPHEMERIS_TYPE":0,"CLASSIFICATION_TYPE":"U","NORAD_CAT_ID":15946,"ELEMENT_SET_NO":999,"REV_AT_EPOCH":12115,"BSTAR":0,"MEAN_MOTION_DOT":7.0e-7,"MEAN_MOTION_DDOT":0},{"OBJECT_NAME":"OPTUS A1 (AUSSAT 1)","OBJECT_ID":"1985-076B","EPOCH":"2026-03-02T02:00:44.765280","MEAN_MOTION":0.9976836,"ECCENTRICITY":0.00044717,"INCLINATION":13.3832,"RA_OF_ASC_NODE":339.6158,"ARG_OF_PERICENTER":352.3021,"MEAN_ANOMALY":192.7186,"EPHEMERIS_TYPE":0,"CLASSIFICATION_TYPE":"U","NORAD_CAT_ID":15993,"ELEMENT_SET_NO":999,"REV_AT_EPOCH":11852,"BSTAR":0,"MEAN_MOTION_DOT":-2.69e-6,"MEAN_MOTION_DDOT":0},{"OBJECT_NAME":"ASC 1","OBJECT_ID":"1985-076C","EPOCH":"2026-03-02T08:25:37.861824","MEAN_MOTION":1.0030989,"ECCENTRICITY":0.00021675,"INCLINATION":13.87,"RA_OF_ASC_NODE":344.1342,"ARG_OF_PERICENTER":16.6935,"MEAN_ANOMALY":169.4082,"EPHEMERIS_TYPE":0,"CLASSIFICATION_TYPE":"U","NORAD_CAT_ID":15994,"ELEMENT_SET_NO":999,"REV_AT_EPOCH":11690,"BSTAR":0,"MEAN_MOTION_DOT":-5.7e-7,"MEAN_MOTION_DDOT":0},{"OBJECT_NAME":"SL-6 R/B(2)","OBJECT_ID":"1985-088D","EPOCH":"2026-02-27T03:31:50.612448","MEAN_MOTION":2.04650642,"ECCENTRICITY":0.67905007,"INCLINATION":65.05,"RA_OF_ASC_NODE":145.148,"ARG_OF_PERICENTER":31.4549,"MEAN_ANOMALY":355.4047,"EPHEMERIS_TYPE":0,"CLASSIFICATION_TYPE":"U","NORAD_CAT_ID":16106,"ELEMENT_SET_NO":999,"REV_AT_EPOCH":30183,"BSTAR":0,"MEAN_MOTION_DOT":-8.0e-6,"MEAN_MOTION_DDOT":0},{"OBJECT_NAME":"IUS R/B(2)","OBJECT_ID":"1985-092E","EPOCH":"2026-03-01T11:52:08.376096","MEAN_MOTION":1.01082293,"ECCENTRICITY":0.00562761,"INCLINATION":10.2419,"RA_OF_ASC_NODE":315.527,"ARG_OF_PERICENTER":178.9917,"MEAN_ANOMALY":181.0246,"EPHEMERIS_TYPE":0,"CLASSIFICATION_TYPE":"U","NORAD_CAT_ID":16119,"ELEMENT_SET_NO":999,"REV_AT_EPOCH":2496,"BSTAR":0,"MEAN_MOTION_DOT":-5.6e-7,"MEAN_MOTION_DDOT":0},{"OBJECT_NAME":"COSMOS 1700","OBJECT_ID":"1985-102A","EPOCH":"2026-03-02T20:10:38.499168","MEAN_MOTION":1.00312106,"ECCENTRICITY":0.00042831,"INCLINATION":9.8893,"RA_OF_ASC_NODE":319.5162,"ARG_OF_PERICENTER":259.8004,"MEAN_ANOMALY":310.2102,"EPHEMERIS_TYPE":0,"CLASSIFICATION_TYPE":"U","NORAD_CAT_ID":16199,"ELEMENT_SET_NO":999,"REV_AT_EPOCH":15060,"BSTAR":0,"MEAN_MOTION_DOT":-4.0e-7,"MEAN_MOTION_DDOT":0}]
