ARABSAT-1A              
1 15560U 85015A   26061.68119979 -.00000365  00000+0  00000+0 0  9994
2 15560  11.9662 331.9703 0030029 240.8335 303.1999  1.00174111124949
BRASILSAT 1             
1 15561U 85015B   26061.78223927 -.00000089  00000+0  00000+0 0  9998
2 15561  14.1727 345.6802 0006067 332.4934 211.7048  0.99544119 45281
COSMOS 1629             
1 15574U 85016A   26061.48485990  .00000046  00000+0  00000+0 0  9992
2 15574   9.3224 315.1791 0006718 272.2778 291.0067  1.00271607149382
SL-12 R/B(2)            
1 15581U 85016F   26061.62950384 -.00000190  00000+0  00000+0 0  9991
2 15581   9.8337 316.9693 0025161 257.3391 276.6918  0.99403513120875
NAHUEL I1 (ANIK C1)     
1 15642U 85028B   26061.99963163 -.00000005  00000+0  00000+0 0  9996
2 15642  14.7855 352.9440 0011164 150.1780  37.7591  0.99665836 45331
GSTAR 1                 
1 15677U 85035A   26061.49907561 -.00000124  00000+0  00000+0 0  9999
2 15677  14.3620 349.5291 0002519  85.0840 160.2544  1.00272621124133
TELECOM 1B              
1 15678U 85035B   26061.14521173 -.00000279  00000+0  00000+0 0  9994
2 15678  10.3100 321.5983 0004740 343.6619 190.7086  1.00374044135948
SL-6 R/B(2)             
1 15741U 85040D   26061.60913860 -.00000703  00000+0 -17766-3 0  9994
2 15741  62.3325 305.3844 7460657 256.5474  18.1193  1.96955464292900
ARABSAT-1B              
1 15825U 85048C   26061.88320852  .00000060  00000+0  00000+0 0  9991
2 15825  12.4915 334.8558 0017262  13.8948 179.8445  1.00432846134365
TELSTAR 303             
1 15826U 85048D   26060.53308168  .00000030  00000+0  00000+0 0  9996
2 15826  14.2530 347.0848 0004423 283.3453 273.8732  0.99881595 45425
INTELSAT 511            
1 15873U 85055A   26061.48108212  .00000065  00000+0  00000+0 0  9997
2 15873  13.2881 339.5191 0010714  79.1231 108.3908  1.00104456123440
RADUGA 16               
1 15946U 85070A   26061.48362807  .00000070  00000+0  00000+0 0  9993
2 15946   9.5997 317.4902 0002918 319.7367 246.0516  1.00256472121159
OPTUS A1 (AUSSAT 1)     
1 15993U 85076B   26061.08385145 -.00000269  00000+0  00000+0 0  9998
2 15993  13.3832 339.6158 0004471 352.3021 192.7186  0.99768360118525
ASC 1                   
1 15994U 85076C   26061.35113266 -.00000057  00000+0  00000+0 0  9997
2 15994  13.8700 344.1342 0002167  16.6935 169.4082  1.00309890116903
SL-6 R/B(2)             
1 16106U 85088D   26058.14711357 -.00000800  00000+0  00000+0 0  9990
2 16106  65.0500 145.1480 6790500  31.4549 355.4047  2.04650642301830
IUS R/B(2)              
1 16119U 85092E   26060.49454139 -.00000056  00000+0  00000+0 0  9995
2 16119  10.2419 315.5270 0056276 178.9917 181.0246  1.01082293 24967
COSMOS 1700             
1 16199U 85102A   26061.84072337 -.00000040  00000+0  00000+0 0  9994
2 16199   9.8893 319.5162 0004283 259.8004 310.2102  1.00312106150602
